NORAD_CAT_ID,OBJECT_NAME,OBJECT_TYPE,EPOCH,MEAN_MOTION,ECCENTRICITY,INCLINATION,RA_OF_ASC_NODE,ARG_OF_PERICENTER,MEAN_ANOMALY,BSTAR,MEAN_MOTION_DOT,MEAN_MOTION_DDOT,TLE_LINE0,TLE_LINE1,TLE_LINE2,SEMIMAJOR_AXIS,PERIOD,APOGEE,PERIGEE,DECAYED
53831.0,STARLINK-4649,PAYLOAD,2023-10-08 03:02:41,15.08829224,0.0001384,53.2162,310.5722,83.1562,276.9587,-3.3293e-05,-8.18e-06,0.0,0 STARLINK-4649,1 53831U 22114P   23281.12687373 -.00000818  00000-0 -33293-4 0  9996,2 53831  53.2162 310.5722 0001384  83.1562 276.9587 15.08829224 58909,6917.913,95.438,540.736,538.821,0.0
53831.0,STARLINK-4649,PAYLOAD,2023-10-08 09:24:14,15.08838005,0.0001671,53.2172,309.3838,89.0392,271.0792,8.8961e-05,1.128e-05,0.0,0 STARLINK-4649,1 53831U 22114P   23281.39183121  .00001128  00000-0  88961-4 0  9992,2 53831  53.2172 309.3838 0001671  89.0392 271.0792 15.08838005 58944,6917.886,95.438,540.907,538.596,0.0
53831.0,STARLINK-4649,PAYLOAD,2023-10-08 18:56:32,15.0884138,0.00017,53.2172,307.6004,91.3718,268.7469,0.00010688,1.413e-05,0.0,0 STARLINK-4649,1 53831U 22114P   23281.78927065  .00001413  00000-0  10688-3 0  9995,2 53831  53.2172 307.6004 0001700  91.3718 268.7469 15.08841380 59542,6917.876,95.437,540.917,538.565,0.0
53831.0,STARLINK-4649,PAYLOAD,2023-10-09 09:15:00,15.08851653,0.0001692,53.2169,304.9244,91.9211,268.1975,0.00041883,6.386e-05,0.0,0 STARLINK-4649,1 53831U 22114P   23282.38542803  .00006386  00000-0  41883-3 0  9990,2 53831  53.2169 304.9244 0001692  91.9211 268.1975 15.08851653 59638,6917.845,95.437,540.88,538.539,0.0
53831.0,STARLINK-4649,PAYLOAD,2023-10-10 01:08:52,15.08845096,0.0001908,53.2162,301.9519,86.6621,273.459,0.0001997,2.892e-05,0.0,0 STARLINK-4649,1 53831U 22114P   23283.04783178  .00002892  00000-0  19970-3 0  9996,2 53831  53.2162 301.9519 0001908  86.6621 273.4590 15.08845096 59196,6917.865,95.437,541.05,538.41,0.0
53831.0,STARLINK-4649,PAYLOAD,2023-10-10 10:41:11,15.08846468,0.0001666,53.2154,300.1656,87.013,273.1052,0.00033122,4.988e-05,0.0,0 STARLINK-4649,1 53831U 22114P   23283.44527073  .00004988  00000-0  33122-3 0  9993,2 53831  53.2154 300.1656 0001666  87.0130 273.1052 15.08846468 59791,6917.861,95.437,540.878,538.573,0.0
53831.0,STARLINK-4649,PAYLOAD,2023-10-11 00:59:39,15.08839896,0.0001714,53.2162,297.4899,83.3273,276.7915,0.00018379,2.638e-05,0.0,0 STARLINK-4649,1 53831U 22114P   23284.04143464  .00002638  00000-0  18379-3 0  9995,2 53831  53.2162 297.4899 0001714  83.3273 276.7915 15.08839896 59343,6917.881,95.438,540.931,538.56,0.0
53831.0,STARLINK-4649,PAYLOAD,2023-10-11 07:21:12,15.08842324,0.000174,53.2156,296.2996,94.2302,265.8889,0.00025574,3.785e-05,0.0,0 STARLINK-4649,1 53831U 22114P   23284.30639384  .00003785  00000-0  25574-3 0  9994,2 53831  53.2156 296.2996 0001740  94.2302 265.8889 15.08842324 59927,6917.873,95.437,540.942,538.535,0.0
53831.0,STARLINK-4649,PAYLOAD,2023-10-12 04:01:13,15.08841304,0.0001629,53.2142,292.4337,92.0251,268.0928,0.00024127,3.554e-05,0.0,0 STARLINK-4649,1 53831U 22114P   23285.16751753  .00003554  00000-0  24127-3 0  9991,2 53831  53.2142 292.4337 0001629  92.0251 268.0928 15.08841304 59515,6917.876,95.437,540.868,538.614,0.0
53831.0,STARLINK-4649,PAYLOAD,2023-10-12 07:11:59,15.08846119,0.0001671,53.2149,291.8388,93.6388,266.4795,0.00028307,4.221e-05,0.0,0 STARLINK-4649,1 53831U 22114P   23285.29999597  .00004221  00000-0  28307-3 0  9991,2 53831  53.2149 291.8388 0001671  93.6388 266.4795 15.08846119 60072,6917.862,95.437,540.883,538.571,0.0
53831.0,STARLINK-4649,PAYLOAD,2023-10-12 19:55:04,15.08845164,0.0001734,53.2159,289.4623,82.9482,277.1707,0.00024459,3.607e-05,0.0,0 STARLINK-4649,1 53831U 22114P   23285.82991727  .00003607  00000-0  24459-3 0  9998,2 53831  53.2159 289.4623 0001734  82.9482 277.1707 15.08845164 60154,6917.865,95.437,540.929,538.53,0.0
53831.0,STARLINK-4649,PAYLOAD,2023-10-13 03:52:00,15.08839332,0.0001748,53.2145,287.9726,97.2647,262.8544,7.8731e-05,9.65e-06,0.0,0 STARLINK-4649,1 53831U 22114P   23286.16111865  .00000965  00000-0  78731-4 0  9990,2 53831  53.2145 287.9726 0001748  97.2647 262.8544 15.08839332 59667,6917.882,95.438,540.957,538.538,0.0
53831.0,STARLINK-4649,PAYLOAD,2023-10-13 10:13:32,15.08845749,0.0001619,53.2152,286.7833,89.8021,270.3157,0.00019848,2.873e-05,0.0,0 STARLINK-4649,1 53831U 22114P   23286.42607626  .00002873  00000-0  19848-3 0  9997,2 53831  53.2152 286.7833 0001619  89.8021 270.3157 15.08845749 60240,6917.863,95.437,540.848,538.608,0.0
53831.0,STARLINK-4649,PAYLOAD,2023-10-13 16:35:05,15.08844923,0.0001545,53.2151,285.5919,88.6957,271.4212,0.00014669,2.048e-05,0.0,0 STARLINK-4649,1 53831U 22114P   23286.69103580  .00002048  00000-0  14669-3 0  9996,2 53831  53.2151 285.5919 0001545  88.6957 271.4212 15.08844923 60285,6917.865,95.437,540.799,538.662,0.0
53831.0,STARLINK-4649,PAYLOAD,2023-10-14 06:53:33,15.08854917,0.0001587,53.2159,282.9171,90.7995,269.3179,0.00022796,3.343e-05,0.0,0 STARLINK-4649,1 53831U 22114P   23287.28718959  .00003343  00000-0  22796-3 0  9993,2 53831  53.2159 282.9171 0001587  90.7995 269.3179 15.08854917 59837,6917.835,95.437,540.798,538.602,0.0
53831.0,STARLINK-4649,PAYLOAD,2023-10-14 22:47:25,15.08835267,0.00019,53.2174,279.9489,103.2646,256.8558,3.3551e-05,2.46e-06,0.0,0 STARLINK-4649,1 53831U 22114P   23287.94959998  .00000246  00000-0  33551-4 0  9997,2 53831  53.2174 279.9489 0001900 103.2646 256.8558 15.08835267 60475,6917.895,95.438,541.074,538.445,0.0
53831.0,STARLINK-4649,PAYLOAD,2023-10-15 05:08:58,15.08821328,0.0001483,53.2158,278.7547,87.6709,272.4453,-0.00015413,-2.739e-05,0.0,0 STARLINK-4649,1 53831U 22114P   23288.21456910 -.00002739  00000-0 -15413-3 0  9991,2 53831  53.2158 278.7547 0001483  87.6709 272.4453 15.08821328 59974,6917.937,95.439,540.828,538.777,0.0
53831.0,STARLINK-4649,PAYLOAD,2023-10-15 08:19:44,15.08824558,0.000148,53.2161,278.1606,88.471,271.6452,-0.00019974,-3.464e-05,0.0,0 STARLINK-4649,1 53831U 22114P   23288.34704611 -.00003464  00000-0 -19974-3 0  9991,2 53831  53.2161 278.1606 0001480  88.4710 271.6452 15.08824558 60538,6917.928,95.439,540.816,538.769,0.0
53831.0,STARLINK-4649,PAYLOAD,2023-10-15 16:16:40,15.08832477,0.0001485,53.2166,276.6739,90.1467,269.9695,2.9588e-05,1.83e-06,0.0,0 STARLINK-4649,1 53831U 22114P   23288.67824590  .00000183  00000-0  29588-4 0  9992,2 53831  53.2166 276.6739 0001485  90.1467 269.9695 15.08832477 60041,6917.903,95.438,540.796,538.741,0.0
53831.0,STARLINK-4649,PAYLOAD,2023-10-16 08:10:31,15.08864057,0.0001313,53.2155,273.6992,88.6611,271.4531,0.0013732,0.00021648,0.0,0 STARLINK-4649,1 53831U 22114P   23289.34064349  .00021648  00000-0  13732-2 0  9996,2 53831  53.2155 273.6992 0001313  88.6611 271.4531 15.08864057 60147,6917.807,95.436,540.58,538.764,0.0
53831.0,STARLINK-4649,PAYLOAD,2023-10-16 22:28:59,15.08852188,0.0001656,53.2156,271.0234,78.1116,282.0062,0.00080909,0.00012616,0.0,0 STARLINK-4649,1 53831U 22114P   23289.93680382  .00012616  00000-0  80909-3 0  9998,2 53831  53.2156 271.0234 0001656  78.1116 282.0062 15.08852188 60771,6917.843,95.437,540.854,538.563,0.0
53831.0,STARLINK-4649,PAYLOAD,2023-10-17 06:25:55,15.08856816,0.0001501,53.2161,269.5361,101.9767,258.1394,0.00045372,6.944e-05,0.0,0 STARLINK-4649,1 53831U 22114P   23290.26799858  .00006944  00000-0  45372-3 0  9997,2 53831  53.2161 269.5361 0001501 101.9767 258.1394 15.08856816 60826,6917.829,95.436,540.732,538.656,0.0
53831.0,STARLINK-4649,PAYLOAD,2023-10-18 03:05:56,15.08835502,0.000156,53.2172,265.6691,97.6111,262.5059,0.00024041,3.54e-05,0.0,0 STARLINK-4649,1 53831U 22114P   23291.12912239  .00003540  00000-0  24041-3 0  9992,2 53831  53.2172 265.6691 0001560  97.6111 262.5059 15.08835502 60950,6917.894,95.438,540.838,538.68,0.0
53831.0,STARLINK-4649,PAYLOAD,2023-10-18 04:41:19,15.088436,0.0001466,53.2151,265.3724,93.8622,266.2537,8.054e-05,9.94e-06,0.0,0 STARLINK-4649,1 53831U 22114P   23291.19535942  .00000994  00000-0  80540-4 0  9998,2 53831  53.2151 265.3724 0001466  93.8622 266.2537 15.08843600 60423,6917.869,95.437,540.749,538.72,0.0
53831.0,STARLINK-4649,PAYLOAD,2023-10-18 15:49:01,15.08842747,0.0001629,53.2146,263.291,98.6046,261.513,0.00015833,2.233e-05,0.0,0 STARLINK-4649,1 53831U 22114P   23291.65904254  .00002233  00000-0  15833-3 0  9995,2 53831  53.2146 263.2910 0001629  98.6046 261.5130 15.08842747 61031,6917.872,95.437,540.864,538.61,0.0
53831.0,STARLINK-4649,PAYLOAD,2023-10-19 04:32:06,15.08851117,0.0001514,53.2161,260.9107,99.9931,260.1232,0.00044031,6.729e-05,0.0,0 STARLINK-4649,1 53831U 22114P   23292.18896111  .00006729  00000-0  44031-3 0  9992,2 53831  53.2161 260.9107 0001514  99.9931 260.1232 15.08851117 61118,6917.846,95.437,540.759,538.664,0.0
53831.0,STARLINK-4649,PAYLOAD,2023-10-19 15:39:48,15.08851013,0.0001483,53.2158,258.8299,95.5358,264.5803,0.0005114,7.863e-05,0.0,0 STARLINK-4649,1 53831U 22114P   23292.65264128  .00007863  00000-0  51140-3 0  9990,2 53831  53.2158 258.8299 0001483  95.5358 264.5803 15.08851013 60646,6917.847,95.437,540.738,538.686,0.0
53831.0,STARLINK-4649,PAYLOAD,2023-10-19 22:01:20,15.08846096,0.0001742,53.2161,257.6423,97.2466,262.8724,0.00031505,4.73e-05,0.0,0 STARLINK-4649,1 53831U 22114P   23292.91760297  .00004730  00000-0  31505-3 0  9990,2 53831  53.2161 257.6423 0001742  97.2466 262.8724 15.08846096 61226,6917.862,95.437,540.932,538.522,0.0
53831.0,STARLINK-4649,PAYLOAD,2023-10-20 04:22:53,15.08849842,0.0001724,53.2178,256.4522,102.8374,257.2811,0.00025675,3.802e-05,0.0,0 STARLINK-4649,1 53831U 22114P   23293.18256043  .00003802  00000-0  25675-3 0  9999,2 53831  53.2178 256.4522 0001724 102.8374 257.2811 15.08849842 60723,6917.85,95.437,540.908,538.523,0.0
53831.0,STARLINK-4649,PAYLOAD,2023-10-20 07:33:39,15.08853156,0.0001739,53.2176,255.8568,103.6277,256.4909,0.00032052,4.819e-05,0.0,0 STARLINK-4649,1 53831U 22114P   23293.31503856  .00004819  00000-0  32052-3 0  9997,2 53831  53.2176 255.8568 0001739 103.6277 256.4909 15.08853156 61285,6917.84,95.437,540.908,538.502,0.0
